[{"OBJECT_NAME":"STARLINK-30232","OBJECT_ID":"2023-096P","EPOCH":"2026-03-03T07:18:23.521824","MEAN_MOTION":16.02304624,"ECCENTRICITY":0.0025666,"INCLINATION":42.9711,"RA_OF_ASC_NODE":175.2497,"ARG_OF_PERICENTER":358.8013,"MEAN_ANOMALY":1.28,"EPHEMERIS_TYPE":0,"CLASSIFICATION_TYPE":"U","NORAD_CAT_ID":57303,"ELEMENT_SET_NO":999,"REV_AT_EPOCH":14747,"BSTAR":0.0014159,"MEAN_MOTION_DOT":0.00893463,"MEAN_MOTION_DDOT":0.00039764},{"OBJECT_NAME":"STARLINK-30209","OBJECT_ID":"2023-096T","EPOCH":"2026-03-02T09:12:44.894880","MEAN_MOTION":16.25821908,"ECCENTRICITY":0.00231269,"INCLINATION":42.9575,"RA_OF_ASC_NODE":178.4941,"ARG_OF_PERICENTER":349.9616,"MEAN_ANOMALY":10.0807,"EPHEMERIS_TYPE":0,"CLASSIFICATION_TYPE":"U","NORAD_CAT_ID":57307,"ELEMENT_SET_NO":999,"REV_AT_EPOCH":14659,"BSTAR":0.0021000159,"MEAN_MOTION_DOT":0.07402874,"MEAN_MOTION_DDOT":9.250356e-6},{"OBJECT_NAME":"QIANKUN-1","OBJECT_ID":"2023-103B","EPOCH":"2026-03-03T04:04:49.359936","MEAN_MOTION":16.07702283,"ECCENTRICITY":0.0028637,"INCLINATION":96.1972,"RA_OF_ASC_NODE":114.109,"ARG_OF_PERICENTER":171.6676,"MEAN_ANOMALY":188.5091,"EPHEMERIS_TYPE":0,"CLASSIFICATION_TYPE":"U","NORAD_CAT_ID":57422,"ELEMENT_SET_NO":999,"REV_AT_EPOCH":15026,"BSTAR":1.8548e-6,"MEAN_MOTION_DOT":1.044e-5,"MEAN_MOTION_DDOT":1.6843e-6},{"OBJECT_NAME":"OBJECT B","OBJECT_ID":"2023-104B","EPOCH":"2026-03-02T21:27:44.497728","MEAN_MOTION":15.92521196,"ECCENTRICITY":0.0001827,"INCLINATION":97.2685,"RA_OF_ASC_NODE":150.1833,"ARG_OF_PERICENTER":317.9791,"MEAN_ANOMALY":42.1343,"EPHEMERIS_TYPE":0,"CLASSIFICATION_TYPE":"U","NORAD_CAT_ID":57425,"ELEMENT_SET_NO":999,"REV_AT_EPOCH":14699,"BSTAR":0.00086565,"MEAN_MOTION_DOT":0.00292015,"MEAN_MOTION_DDOT":3.4214e-5},{"OBJECT_NAME":"SATORO-T2","OBJECT_ID":"2024-149K","EPOCH":"2026-03-02T19:47:35.050272","MEAN_MOTION":16.42460453,"ECCENTRICITY":0.00116018,"INCLINATION":97.3532,"RA_OF_ASC_NODE":155.3194,"ARG_OF_PERICENTER":281.1702,"MEAN_ANOMALY":78.8295,"EPHEMERIS_TYPE":0,"CLASSIFICATION_TYPE":"U","NORAD_CAT_ID":60477,"ELEMENT_SET_NO":999,"REV_AT_EPOCH":8663,"BSTAR":0.00050664225,"MEAN_MOTION_DOT":0.11883383,"MEAN_MOTION_DDOT":2.51825e-6},{"OBJECT_NAME":"RUZAEVKA 390 (RS44S)","OBJECT_ID":"2024-199AH","EPOCH":"2026-03-03T03:02:39.113376","MEAN_MOTION":16.01174251,"ECCENTRICITY":0.0001665,"INCLINATION":97.2874,"RA_OF_ASC_NODE":303.9457,"ARG_OF_PERICENTER":158.5882,"MEAN_ANOMALY":201.5467,"EPHEMERIS_TYPE":0,"CLASSIFICATION_TYPE":"U","NORAD_CAT_ID":61766,"ELEMENT_SET_NO":999,"REV_AT_EPOCH":11847,"BSTAR":0.0016897,"MEAN_MOTION_DOT":0.00909546,"MEAN_MOTION_DDOT":0.00040737},{"OBJECT_NAME":"SZ-19 DEB","OBJECT_ID":"2024-194E","EPOCH":"2026-03-03T00:52:13.580256","MEAN_MOTION":16.12528695,"ECCENTRICITY":0.0013579,"INCLINATION":41.4599,"RA_OF_ASC_NODE":204.4504,"ARG_OF_PERICENTER":0.4546,"MEAN_ANOMALY":359.6322,"EPHEMERIS_TYPE":0,"CLASSIFICATION_TYPE":"U","NORAD_CAT_ID":63801,"ELEMENT_SET_NO":999,"REV_AT_EPOCH":4814,"BSTAR":0.00048335,"MEAN_MOTION_DOT":0.00572834,"MEAN_MOTION_DDOT":0.00018215},{"OBJECT_NAME":"UNICORN-2P","OBJECT_ID":"2025-052BT","EPOCH":"2026-03-02T15:53:23.407872","MEAN_MOTION":16.21197985,"ECCENTRICITY":0.00074413,"INCLINATION":97.3657,"RA_OF_ASC_NODE":322.3273,"ARG_OF_PERICENTER":165.4209,"MEAN_ANOMALY":194.7296,"EPHEMERIS_TYPE":0,"CLASSIFICATION_TYPE":"U","NORAD_CAT_ID":63981,"ELEMENT_SET_NO":999,"REV_AT_EPOCH":5408,"BSTAR":0.0043614637,"MEAN_MOTION_DOT":0.09021256,"MEAN_MOTION_DDOT":2.471348e-6},{"OBJECT_NAME":"COSMOS 2591","OBJECT_ID":"2025-182A","EPOCH":"2026-03-03T02:33:35.818848","MEAN_MOTION":15.96399875,"ECCENTRICITY":0.0011965,"INCLINATION":96.6041,"RA_OF_ASC_NODE":355.4609,"ARG_OF_PERICENTER":196.7279,"MEAN_ANOMALY":163.3606,"EPHEMERIS_TYPE":0,"CLASSIFICATION_TYPE":"U","NORAD_CAT_ID":65267,"ELEMENT_SET_NO":999,"REV_AT_EPOCH":3077,"BSTAR":0.00013829,"MEAN_MOTION_DOT":0.00057258,"MEAN_MOTION_DDOT":3.1148e-6},{"OBJECT_NAME":"COSMOS 2592","OBJECT_ID":"2025-182B","EPOCH":"2026-03-03T01:25:54.117696","MEAN_MOTION":15.96394107,"ECCENTRICITY":0.0005786,"INCLINATION":96.5926,"RA_OF_ASC_NODE":355.3909,"ARG_OF_PERICENTER":180.3171,"MEAN_ANOMALY":179.8104,"EPHEMERIS_TYPE":0,"CLASSIFICATION_TYPE":"U","NORAD_CAT_ID":65268,"ELEMENT_SET_NO":999,"REV_AT_EPOCH":3076,"BSTAR":1.2801e-5,"MEAN_MOTION_DOT":4.736e-5,"MEAN_MOTION_DDOT":1.8646e-6},{"OBJECT_NAME":"COSMOS 2593","OBJECT_ID":"2025-182C","EPOCH":"2026-03-03T01:48:29.140128","MEAN_MOTION":15.96431526,"ECCENTRICITY":0.000721,"INCLINATION":96.5902,"RA_OF_ASC_NODE":355.3815,"ARG_OF_PERICENTER":174.2916,"MEAN_ANOMALY":185.8446,"EPHEMERIS_TYPE":0,"CLASSIFICATION_TYPE":"U","NORAD_CAT_ID":65269,"ELEMENT_SET_NO":999,"REV_AT_EPOCH":3076,"BSTAR":5.1973e-5,"MEAN_MOTION_DOT":0.00021088,"MEAN_MOTION_DDOT":2.0271e-6},{"OBJECT_NAME":"COSMOS 2594","OBJECT_ID":"2025-182D","EPOCH":"2026-03-03T02:11:04.398432","MEAN_MOTION":15.96360034,"ECCENTRICITY":0.0005632,"INCLINATION":96.5907,"RA_OF_ASC_NODE":355.3638,"ARG_OF_PERICENTER":167.4295,"MEAN_ANOMALY":192.7125,"EPHEMERIS_TYPE":0,"CLASSIFICATION_TYPE":"U","NORAD_CAT_ID":65270,"ELEMENT_SET_NO":999,"REV_AT_EPOCH":3078,"BSTAR":0.00025124,"MEAN_MOTION_DOT":0.00103666,"MEAN_MOTION_DDOT":5.9553e-6},{"OBJECT_NAME":"ISS OBJECT XK","OBJECT_ID":"1998-067XK","EPOCH":"2026-03-03T01:26:20.103360","MEAN_MOTION":16.04528256,"ECCENTRICITY":0.0005997,"INCLINATION":51.6162,"RA_OF_ASC_NODE":81.7296,"ARG_OF_PERICENTER":52.8791,"MEAN_ANOMALY":307.2768,"EPHEMERIS_TYPE":0,"CLASSIFICATION_TYPE":"U","NORAD_CAT_ID":65731,"ELEMENT_SET_NO":999,"REV_AT_EPOCH":2583,"BSTAR":0.0013204,"MEAN_MOTION_DOT":0.00902575,"MEAN_MOTION_DDOT":0.00042896},{"OBJECT_NAME":"BOTAN","OBJECT_ID":"1998-067XP","EPOCH":"2026-03-03T04:21:07.440768","MEAN_MOTION":16.24781476,"ECCENTRICITY":0.0003369,"INCLINATION":51.6045,"RA_OF_ASC_NODE":83.2412,"ARG_OF_PERICENTER":47.8026,"MEAN_ANOMALY":312.3279,"EPHEMERIS_TYPE":0,"CLASSIFICATION_TYPE":"U","NORAD_CAT_ID":65942,"ELEMENT_SET_NO":999,"REV_AT_EPOCH":2257,"BSTAR":0.0014562,"MEAN_MOTION_DOT":0.04280876,"MEAN_MOTION_DDOT":1.2003e-5},{"OBJECT_NAME":"CZ-4B R/B","OBJECT_ID":"2025-289B","EPOCH":"2026-03-03T07:45:12.143808","MEAN_MOTION":16.22455252,"ECCENTRICITY":0.0031937,"INCLINATION":97.5043,"RA_OF_ASC_NODE":140.4699,"ARG_OF_PERICENTER":52.1725,"MEAN_ANOMALY":308.2447,"EPHEMERIS_TYPE":0,"CLASSIFICATION_TYPE":"U","NORAD_CAT_ID":66989,"ELEMENT_SET_NO":999,"REV_AT_EPOCH":1332,"BSTAR":0.00067367,"MEAN_MOTION_DOT":0.01722352,"MEAN_MOTION_DDOT":2.5016e-6},{"OBJECT_NAME":"ZK-1A R/B","OBJECT_ID":"2025-292K","EPOCH":"2026-03-03T06:33:49.815072","MEAN_MOTION":16.24488184,"ECCENTRICITY":0.0040889,"INCLINATION":97.6831,"RA_OF_ASC_NODE":149.0042,"ARG_OF_PERICENTER":58.8671,"MEAN_ANOMALY":301.6619,"EPHEMERIS_TYPE":0,"CLASSIFICATION_TYPE":"U","NORAD_CAT_ID":67002,"ELEMENT_SET_NO":999,"REV_AT_EPOCH":1307,"BSTAR":0.0009027,"MEAN_MOTION_DOT":0.0298696,"MEAN_MOTION_DDOT":2.6365e-6}]
