STARLINK-30232          
1 57303U 23096P   26062.30443891  .00893463  39764-3  14159-2 0  9993
2 57303  42.9711 175.2497 0025666 358.8013   1.2800 16.02304624147474
STARLINK-30209          
1 57307U 23096T   26061.38385295  .07402874  92504-5  21000-2 0  9992
2 57307  42.9575 178.4941 0023126 349.9616  10.0807 16.25821908146595
QIANKUN-1               
1 57422U 23103B   26062.17001574  .00001044  16843-5  18548-5 0  9997
2 57422  96.1972 114.1090 0028637 171.6676 188.5091 16.07702283150264
OBJECT B                
1 57425U 23104B   26061.89426502  .00292015  34214-4  86565-3 0  9994
2 57425  97.2685 150.1833 0001827 317.9791  42.1343 15.92521196146995
SATORO-T2               
1 60477U 24149K   26061.82471123  .11883383  25182-5  50664-3 0  9999
2 60477  97.3532 155.3194 0011601 281.1702  78.8295 16.42460453 86630
RUZAEVKA 390 (RS44S)    
1 61766U 24199AH  26062.12684159  .00909546  40737-3  16897-2 0  9993
2 61766  97.2874 303.9457 0001665 158.5882 201.5467 16.01174251118475
SZ-19 DEB               
1 63801U 24194E   26062.03626829  .00572834  18215-3  48335-3 0  9995
2 63801  41.4599 204.4504 0013579   0.4546 359.6322 16.12528695 48147
UNICORN-2P              
1 63981U 25052BT  26061.66207648  .09021256  24713-5  43615-2 0  9993
2 63981  97.3657 322.3273 0007441 165.4209 194.7296 16.21197985 54085
COSMOS 2591             
1 65267U 25182A   26062.10666457  .00057258  31148-5  13829-3 0  9990
2 65267  96.6041 355.4609 0011965 196.7279 163.3606 15.96399875 30773
COSMOS 2592             
1 65268U 25182B   26062.05965414  .00004736  18646-5  12801-4 0  9991
2 65268  96.5926 355.3909 0005786 180.3171 179.8104 15.96394107 30768
COSMOS 2593             
1 65269U 25182C   26062.07533727  .00021088  20271-5  51973-4 0  9991
2 65269  96.5902 355.3815 0007210 174.2916 185.8446 15.96431526 30765
COSMOS 2594             
1 65270U 25182D   26062.09102313  .00103666  59553-5  25124-3 0  9994
2 65270  96.5907 355.3638 0005632 167.4295 192.7125 15.96360034 30783
ISS OBJECT XK           
1 65731U 98067XK  26062.05995490  .00902575  42896-3  13204-2 0  9991
2 65731  51.6162  81.7296 0005997  52.8791 307.2768 16.04528256 25830
BOTAN                   
1 65942U 98067XP  26062.18133612  .04280876  12003-4  14562-2 0  9992
2 65942  51.6045  83.2412 0003369  47.8026 312.3279 16.24781476 22576
CZ-4B R/B               
1 66989U 25289B   26062.32305722  .01722352  25016-5  67367-3 0  9997
2 66989  97.5043 140.4699 0031937  52.1725 308.2447 16.22455252 13327
ZK-1A R/B               
1 67002U 25292K   26062.27349323  .02986960  26365-5  90270-3 0  9992
2 67002  97.6831 149.0042 0040889  58.8671 301.6619 16.24488184 13078
